[{"OBJECT_NAME":"STARLINK-33897","OBJECT_ID":"2025-094B","EPOCH":"2026-03-09T21:31:28.309152","MEAN_MOTION":14.98333036,"ECCENTRICITY":0.00030947,"INCLINATION":70.0017,"RA_OF_ASC_NODE":233.9544,"ARG_OF_PERICENTER":270.6556,"MEAN_ANOMALY":89.4249,"EPHEMERIS_TYPE":0,"CLASSIFICATION_TYPE":"U","NORAD_CAT_ID":63865,"ELEMENT_SET_NO":999,"REV_AT_EPOCH":4745,"BSTAR":0.00019546056,"MEAN_MOTION_DOT":2.24e-5,"MEAN_MOTION_DDOT":0},{"OBJECT_NAME":"QPS-SAR-15 (SUKUNAMI-I)","OBJECT_ID":"2025-307A","EPOCH":"2026-03-08T23:55:57.082080","MEAN_MOTION":14.98074148,"ECCENTRICITY":0.00081968,"INCLINATION":42.0068,"RA_OF_ASC_NODE":57.7223,"ARG_OF_PERICENTER":56.4325,"MEAN_ANOMALY":303.7282,"EPHEMERIS_TYPE":0,"CLASSIFICATION_TYPE":"U","NORAD_CAT_ID":67228,"ELEMENT_SET_NO":999,"REV_AT_EPOCH":1165,"BSTAR":0.00063967163,"MEAN_MOTION_DOT":7.522e-5,"MEAN_MOTION_DDOT":0}]
